{
  "type": "FeatureCollection",
  "features": [
    {
      "type": "Feature",
      "properties": {
        "norad_id": 34875,
        "name": "COSMOS 2251 DEB",
        "group": "cosmos-2251-debris",
        "lat": 34.281123128007074,
        "lon": -53.577917033755504,
        "alt_km": 731.6194865436437,
        "timestamp": "2025-12-23T16:57:12.750181+00:00",
        "meta_object_name": "COSMOS 2251 DEB",
        "meta_object_id": "1993-036ACN",
        "meta_epoch": "2025-12-23T03:51:36.834336",
        "meta_mean_motion": 14.4895964,
        "meta_eccentricity": 0.00162777,
        "meta_inclination": 74.0445,
        "meta_ra_of_asc_node": 138.6898,
        "meta_arg_of_pericenter": 261.6953,
        "meta_mean_anomaly": 277.9254,
        "meta_ephemeris_type": 0,
        "meta_classification_type": "U",
        "meta_norad_cat_id": 34875,
        "meta_element_set_no": 999,
        "meta_rev_at_epoch": 87906,
        "meta_bstar": 0.00050650113,
        "meta_mean_motion_dot": 1.895e-05,
        "meta_mean_motion_ddot": 0,
        "tle_line1": "1 34875U 93036ACN 25357.16084299  .00001895  00000+0  50650-3 0  9990",
        "tle_line2": "2 34875  74.0445 138.6898 0016277 261.6953 277.9254 14.48959640879067"
      },
      "geometry": {
        "type": "Point",
        "coordinates": [
          -53.577917033755504,
          34.281123128007074
        ]
      }
    },
    {
      "type": "Feature",
      "properties": {
        "norad_id": 34878,
        "name": "COSMOS 2251 DEB",
        "group": "cosmos-2251-debris",
        "lat": 67.3490874718632,
        "lon": 166.36269942200855,
        "alt_km": 1100.308914812298,
        "timestamp": "2025-12-23T16:57:12.750191+00:00",
        "meta_object_name": "COSMOS 2251 DEB",
        "meta_object_id": "1993-036ACR",
        "meta_epoch": "2025-12-21T20:42:06.269184",
        "meta_mean_motion": 13.44202336,
        "meta_eccentricity": 0.04356411,
        "meta_inclination": 73.9646,
        "meta_ra_of_asc_node": 32.8499,
        "meta_arg_of_pericenter": 14.5745,
        "meta_mean_anomaly": 167.3818,
        "meta_ephemeris_type": 0,
        "meta_classification_type": "U",
        "meta_norad_cat_id": 34878,
        "meta_element_set_no": 999,
        "meta_rev_at_epoch": 81395,
        "meta_bstar": 0.00060891451,
        "meta_mean_motion_dot": 6.05e-06,
        "meta_mean_motion_ddot": 0,
        "tle_line1": "1 34878U 93036ACR 25355.86257256  .00000605  00000+0  60891-3 0  9999",
        "tle_line2": "2 34878  73.9646  32.8499 0435641  14.5745 167.3818 13.44202336813959"
      },
      "geometry": {
        "type": "Point",
        "coordinates": [
          166.36269942200855,
          67.3490874718632
        ]
      }
    },
    {
      "type": "Feature",
      "properties": {
        "norad_id": 34882,
        "name": "COSMOS 2251 DEB",
        "group": "cosmos-2251-debris",
        "lat": -43.85710334685041,
        "lon": 40.579729209581984,
        "alt_km": 706.9769962524788,
        "timestamp": "2025-12-23T16:57:12.750202+00:00",
        "meta_object_name": "COSMOS 2251 DEB",
        "meta_object_id": "1993-036ACV",
        "meta_epoch": "2025-12-22T13:37:59.630592",
        "meta_mean_motion": 14.61613219,
        "meta_eccentricity": 0.00833251,
        "meta_inclination": 74.0449,
        "meta_ra_of_asc_node": 206.7999,
        "meta_arg_of_pericenter": 331.387,
        "meta_mean_anomaly": 28.2735,
        "meta_ephemeris_type": 0,
        "meta_classification_type": "U",
        "meta_norad_cat_id": 34882,
        "meta_element_set_no": 999,
        "meta_rev_at_epoch": 88668,
        "meta_bstar": 0.0001119864,
        "meta_mean_motion_dot": 5.51e-06,
        "meta_mean_motion_ddot": 0,
        "tle_line1": "1 34882U 93036ACV 25356.56805128  .00000551  00000+0  11199-3 0  9996",
        "tle_line2": "2 34882  74.0449 206.7999 0083325 331.3870  28.2735 14.61613219886680"
      },
      "geometry": {
        "type": "Point",
        "coordinates": [
          40.579729209581984,
          -43.85710334685041
        ]
      }
    },
    {
      "type": "Feature",
      "properties": {
        "norad_id": 34883,
        "name": "COSMOS 2251 DEB",
        "group": "cosmos-2251-debris",
        "lat": -58.307331742143674,
        "lon": -110.43025609547662,
        "alt_km": 662.7051355472368,
        "timestamp": "2025-12-23T16:57:12.750212+00:00",
        "meta_object_name": "COSMOS 2251 DEB",
        "meta_object_id": "1993-036ACW",
        "meta_epoch": "2025-12-23T02:36:33.483168",
        "meta_mean_motion": 14.51787467,
        "meta_eccentricity": 0.00942228,
        "meta_inclination": 74.1995,
        "meta_ra_of_asc_node": 43.3859,
        "meta_arg_of_pericenter": 225.8341,
        "meta_mean_anomaly": 133.505,
        "meta_ephemeris_type": 0,
        "meta_classification_type": "U",
        "meta_norad_cat_id": 34883,
        "meta_element_set_no": 999,
        "meta_rev_at_epoch": 86590,
        "meta_bstar": 0.003571855,
        "meta_mean_motion_dot": 0.00015225,
        "meta_mean_motion_ddot": 0,
        "tle_line1": "1 34883U 93036ACW 25357.10872087  .00015225  00000+0  35719-2 0  9993",
        "tle_line2": "2 34883  74.1995  43.3859 0094222 225.8341 133.5050 14.51787467865904"
      },
      "geometry": {
        "type": "Point",
        "coordinates": [
          -110.43025609547662,
          -58.307331742143674
        ]
      }
    },
    {
      "type": "Feature",
      "properties": {
        "norad_id": 34884,
        "name": "COSMOS 2251 DEB",
        "group": "cosmos-2251-debris",
        "lat": -71.34342446486357,
        "lon": -87.14336762724501,
        "alt_km": 604.6149192344938,
        "timestamp": "2025-12-23T16:57:12.750223+00:00",
        "meta_object_name": "COSMOS 2251 DEB",
        "meta_object_id": "1993-036ACX",
        "meta_epoch": "2025-12-23T04:47:03.273216",
        "meta_mean_motion": 14.90506031,
        "meta_eccentricity": 0.00029467,
        "meta_inclination": 74.0167,
        "meta_ra_of_asc_node": 35.779,
        "meta_arg_of_pericenter": 34.3246,
        "meta_mean_anomaly": 26.3077,
        "meta_ephemeris_type": 0,
        "meta_classification_type": "U",
        "meta_norad_cat_id": 34884,
        "meta_element_set_no": 999,
        "meta_rev_at_epoch": 87961,
        "meta_bstar": 0.0025114574,
        "meta_mean_motion_dot": 0.00024585,
        "meta_mean_motion_ddot": 0,
        "tle_line1": "1 34884U 93036ACX 25357.19934344  .00024585  00000+0  25115-2 0  9996",
        "tle_line2": "2 34884  74.0167  35.7790 0002946  34.3246  26.3077 14.90506031879613"
      },
      "geometry": {
        "type": "Point",
        "coordinates": [
          -87.14336762724501,
          -71.34342446486357
        ]
      }
    },
    {
      "type": "Feature",
      "properties": {
        "norad_id": 34885,
        "name": "COSMOS 2251 DEB",
        "group": "cosmos-2251-debris",
        "lat": 53.53067576761287,
        "lon": -174.8326754130837,
        "alt_km": 725.692436821003,
        "timestamp": "2025-12-23T16:57:12.750234+00:00",
        "meta_object_name": "COSMOS 2251 DEB",
        "meta_object_id": "1993-036ACY",
        "meta_epoch": "2025-12-22T21:23:32.533728",
        "meta_mean_motion": 14.51553675,
        "meta_eccentricity": 0.0015078,
        "meta_inclination": 74.0301,
        "meta_ra_of_asc_node": 163.9067,
        "meta_arg_of_pericenter": 249.2425,
        "meta_mean_anomaly": 230.1721,
        "meta_ephemeris_type": 0,
        "meta_classification_type": "U",
        "meta_norad_cat_id": 34885,
        "meta_element_set_no": 999,
        "meta_rev_at_epoch": 87626,
        "meta_bstar": 0.00074868,
        "meta_mean_motion_dot": 2.974e-05,
        "meta_mean_motion_ddot": 0,
        "tle_line1": "1 34885U 93036ACY 25356.89134877  .00002974  00000+0  74868-3 0  9994",
        "tle_line2": "2 34885  74.0301 163.9067 0015078 249.2425 230.1721 14.51553675876263"
      },
      "geometry": {
        "type": "Point",
        "coordinates": [
          -174.8326754130837,
          53.53067576761287
        ]
      }
    },
    {
      "type": "Feature",
      "properties": {
        "norad_id": 34886,
        "name": "COSMOS 2251 DEB",
        "group": "cosmos-2251-debris",
        "lat": 3.5814694583167963,
        "lon": 158.22950698738987,
        "alt_km": 429.2918674012126,
        "timestamp": "2025-12-23T16:57:12.750244+00:00",
        "meta_object_name": "COSMOS 2251 DEB",
        "meta_object_id": "1993-036ACZ",
        "meta_epoch": "2025-12-19T05:20:10.106016",
        "meta_mean_motion": 15.39455892,
        "meta_eccentricity": 0.0031395,
        "meta_inclination": 73.9504,
        "meta_ra_of_asc_node": 166.9286,
        "meta_arg_of_pericenter": 349.772,
        "meta_mean_anomaly": 10.2844,
        "meta_ephemeris_type": 0,
        "meta_classification_type": "U",
        "meta_norad_cat_id": 34886,
        "meta_element_set_no": 999,
        "meta_rev_at_epoch": 63098,
        "meta_bstar": 0.0012728,
        "meta_mean_motion_dot": 0.00051055,
        "meta_mean_motion_ddot": 0,
        "tle_line1": "1 34886U 93036ACZ 25353.22233919  .00051055  00000+0  12728-2 0  9996",
        "tle_line2": "2 34886  73.9504 166.9286 0031395 349.7720  10.2844 15.39455892630986"
      },
      "geometry": {
        "type": "Point",
        "coordinates": [
          158.22950698738987,
          3.5814694583167963
        ]
      }
    }
  ]
}